OBJECT_NAME,OBJECT_ID,EPOCH,MEAN_MOTION,ECCENTRICITY,INCLINATION,RA_OF_ASC_NODE,ARG_OF_PERICENTER,MEAN_ANOMALY,EPHEMERIS_TYPE,CLASSIFICATION_TYPE,NORAD_CAT_ID,ELEMENT_SET_NO,REV_AT_EPOCH,BSTAR,MEAN_MOTION_DOT,MEAN_MOTION_DDOT
CUBEBUG-2 (LO-74),2013-066AA,2026-06-24T03:55:32.664000,14.93813506,.00577884,97.8904,124.1710,6.1369,354.0545,0,U,39440,999,67803,.30264617E-3,.3255E-4,0
FUNCUBE-1 (AO-73),2013-066AE,2026-06-23T11:40:32.939904,15.09547873,.00363207,97.8270,146.0634,179.4025,180.7253,0,U,39444,999,68061,.29948666E-3,.4811E-4,0
UWE-3,2013-066AG,2026-06-23T19:59:08.622816,14.97073410,.00468826,97.8705,130.9512,298.7267,60.9247,0,U,39446,999,67857,.33997423E-3,.3944E-4,0
UNISAT-6,2014-033C,2026-06-24T04:37:40.879200,14.88275685,.0045899,97.7884,327.7817,46.7999,313.7038,0,U,40012,999,64720,.22825123E-3,.2093E-4,0
DUCHIFAT-1,2014-033M,2026-06-24T02:49:57.853344,15.65879628,.00018584,98.0460,235.2586,108.0960,252.0500,0,U,40021,999,65683,.10096818E-2,.103515E-2,0
QB50P1,2014-033R,2026-06-24T06:25:32.855232,15.18350991,.00085209,98.0965,186.9101,189.6897,170.4172,0,U,40025,999,65410,.34306725E-3,.6977E-4,0
LILACSAT-2,2015-049K,2026-06-24T07:15:03.750336,15.51649967,.00061115,97.4643,212.4145,212.6899,147.3975,0,U,40908,999,59685,.26995817E-3,.1596E-3,0
FOX-1A (AO-85),2015-058D,2026-06-23T22:13:10.891200,14.90994015,.01308506,64.7750,258.0417,53.9672,307.3482,0,U,40967,999,11457,.15604053E-3,.164E-4,0
CAS-2T & KS-1Q,2016-066G,2026-06-24T03:59:56.338656,14.44714489,.03428954,98.3820,250.8232,108.3774,255.5023,0,U,41847,999,50580,.20428E-3,.141E-4,0
RADFXSAT (FOX-1B),2017-073E,2026-06-24T03:40:41.289024,15.12802211,.01487746,97.4700,42.2254,304.9888,53.7450,0,U,43017,999,46644,.26535655E-3,.6039E-4,0
DIWATA-2B,2018-084H,2026-06-24T07:19:46.971264,15.00478828,.00129456,98.1204,11.8236,147.7139,212.4879,0,U,43678,999,41728,.14162908E-3,.172E-4,0
ES'HAIL 2,2018-090A,2026-06-24T04:12:47.806848,1.00273279,.000208,0.0162,323.1081,165.5076,232.7069,0,U,43700,999,2774,0,.152E-5,0
FOX-1CLIFF (AO-95),2018-099N,2026-06-24T03:44:36.246912,15.26836482,.00072993,97.4382,235.3767,330.8169,29.2661,0,U,43770,999,41428,.36927831E-3,.9674E-4,0
ITASAT,2018-099AE,2026-06-23T20:56:01.575744,15.19126206,.00113865,97.4030,226.2505,335.8240,24.2459,0,U,43786,999,41392,.26291301E-3,.5463E-4,0
JY1SAT (JO-97),2018-099AX,2026-06-24T03:24:20.175552,15.33842498,.0004834,97.4133,238.0008,230.5921,129.4894,0,U,43803,999,41469,.46378981E-3,.15119E-3,0
UWE-4,2018-111E,2026-06-24T01:47:26.613312,15.46500339,.00044861,97.5841,103.7842,307.8238,52.2604,0,U,43880,999,41184,.61682984E-3,.30603E-3,0
TIANYAN 01,2019-093C,2026-06-24T05:55:56.074656,14.86529999,.00150628,97.7530,247.3073,66.0659,294.2133,0,U,44881,999,35246,.86391597E-4,.713E-5,0
RS-44 & BREEZE-KM R/B,2019-096E,2026-06-24T04:44:55.942080,12.79748960,.0218408,82.5224,335.0455,127.8374,234.2715,0,U,44909,999,30324,.87620922E-4,.35E-6,0
SALSAT,2020-068K,2026-06-24T06:35:57.895296,15.29885766,.00078015,97.8854,178.7714,277.9982,82.0372,0,U,46495,999,31644,.23162762E-3,.6623E-4,0
XW-3 (CAS-9),2021-131B,2026-06-24T06:34:50.329632,14.41362651,.00053741,98.4979,267.6255,80.3481,279.8315,0,U,50466,999,23613,.11504208E-3,.328E-5,0
GREENCUBE (IO-117),2022-080E,2026-06-23T17:18:16.788960,6.42583215,.00089266,70.1445,295.9726,288.1418,71.8270,0,U,53109,999,9248,0,-.3E-7,0
UMKA 1 (RS40S),2023-091G,2026-06-24T06:22:22.184256,15.20887439,.00143435,97.5050,233.9355,95.8193,264.4678,0,U,57172,999,16508,.24248297E-3,.5303E-4,0
CUBESX-HSE 3 (RS42S),2023-091N,2026-06-24T05:33:01.411776,15.31367077,.00117384,97.5092,240.9077,72.8879,287.3647,0,U,57178,999,16550,.39011929E-3,.11769E-3,0
MONITOR-3 (RS58S),2023-091Q,2026-06-24T06:30:45.482400,15.27964376,.00129094,97.5084,238.7696,78.9020,281.3670,0,U,57180,999,16537,.36018157E-3,.9778E-4,0
MONITOR-4 (RS57S),2023-091S,2026-06-24T06:00:01.921536,15.28050072,.00128962,97.5078,238.7196,79.2850,280.9840,0,U,57182,999,16537,.36991418E-3,.10071E-3,0
MONITOR-2 (RS39S),2023-091U,2026-06-24T05:30:56.676096,15.18966612,.00127693,97.5072,233.4672,89.8428,270.4270,0,U,57184,999,16502,.22210911E-3,.4583E-4,0
SVYATOBOR 1 (RS60S),2023-091X,2026-06-24T06:27:40.601088,15.26718812,.00106647,97.5090,239.1255,73.1213,287.1194,0,U,57187,999,16539,.32749477E-3,.8545E-4,0
VIZARD-METEO (RS38S),2023-091Z,2026-06-24T05:57:07.573248,15.36219101,.00078006,97.5092,244.8751,56.2323,303.9663,0,U,57189,999,16577,.43036255E-3,.15134E-3,0
POLYTECH-UNIVERSE 3 (RS46S),2023-091AB,2026-06-24T06:08:45.814848,15.19170539,.00170736,97.5048,232.9975,104.5153,255.7977,0,U,57191,999,16502,.21610188E-3,.4491E-4,0
UTMN 2 (RS27S),2023-091AP,2026-06-24T05:52:49.226016,15.32200560,.00088695,97.5088,242.5640,62.5660,297.6483,0,U,57203,999,16562,.37559541E-3,.11616E-3,0
